{
    "links": {
        "self": "http://www.neowsapp.com/rest/v1/neo/3603227?api_key=iIulBulltgU6a56xZRHN4H3l9WmuAYTsLGpBGhQ2"
    },
    "id": "3603227",
    "neo_reference_id": "3603227",
    "name": "(2012 JA)",
    "designation": "2012 JA",
    "nasa_jpl_url": "http://ssd.jpl.nasa.gov/sbdb.cgi?sstr=3603227",
    "absolute_magnitude_h": 24.8,
    "estimated_diameter": {
        "kilometers": {
            "estimated_diameter_min": 0.0291443905,
            "estimated_diameter_max": 0.0651688382
        },
        "meters": {
            "estimated_diameter_min": 29.1443904535,
            "estimated_diameter_max": 65.1688382168
        },
        "miles": {
            "estimated_diameter_min": 0.018109479,
            "estimated_diameter_max": 0.0404940262
        },
        "feet": {
            "estimated_diameter_min": 95.6180819754,
            "estimated_diameter_max": 213.8085311752
        }
    },
    "is_potentially_hazardous_asteroid": false,
    "close_approach_data": [
        {
            "close_approach_date": "2012-05-10",
            "close_approach_date_full": "2012-May-10 18:51",
            "epoch_date_close_approach": 1336675860000,
            "relative_velocity": {
                "kilometers_per_second": "12.6825617261",
                "kilometers_per_hour": "45657.2222137904",
                "miles_per_hour": "28369.6223250077"
            },
            "miss_distance": {
                "astronomical": "0.0478905334",
                "lunar": "18.6294174926",
                "kilometers": "7164321.789803858",
                "miles": "4451703.1319669204"
            },
            "orbiting_body": "Earth"
        }
    ],
    "orbital_data": {
        "orbit_id": "6",
        "orbit_determination_date": "2017-04-06 08:49:52",
        "first_observation_date": "2012-05-01",
        "last_observation_date": "2012-05-04",
        "data_arc_in_days": 3,
        "observations_used": 33,
        "orbit_uncertainty": "8",
        "minimum_orbit_intersection": ".00959858",
        "jupiter_tisserand_invariant": "3.519",
        "epoch_osculation": "2456049.5",
        "eccentricity": ".5624691346634088",
        "semi_major_axis": "2.108838103972997",
        "inclination": "2.242698005592008",
        "ascending_node_longitude": "42.42829212500019",
        "orbital_period": "1118.570308213202",
        "perihelion_distance": ".922681760486082",
        "perihelion_argument": "234.9536332831826",
        "aphelion_distance": "3.294994447459913",
        "perihelion_time": "2456092.889149915947",
        "mean_anomaly": "346.0356619024759",
        "mean_motion": ".3218394028132769",
        "equinox": "J2000",
        "orbit_class": {
            "orbit_class_type": "APO",
            "orbit_class_description": "Near-Earth asteroid orbits which cross the Earth’s orbit similar to that of 1862 Apollo",
            "orbit_class_range": "a (semi-major axis) > 1.0 AU; q (perihelion) < 1.017 AU"
        }
    },
    "is_sentry_object": false
}